format  = 'OEF2.0'       ! file format
rectype = 'ML'           ! record type (1L/ML)
refsys  = ECLM J2000     ! default reference system
END_OF_HEADER
1862
! Equinoctial elements: a, e*sin(LP), e*cos(LP), tan(i/2)*sin(LN), tan(i/2)*cos(LN), mean long.
 EQU   1.47013272984140E+00  -0.347997540664214   0.438628682996898    0.032422473899364    0.045038554614418 174.9957243809415
 MJD     54668.051354402 TDT
 MAG  16.060  0.090
! Non-grav parameters: model used, actual number in use, dimension, list of solve for parameters to be currently determined
 LSP   1  2    7    2
! Vector of dynamical parameters.
 NGR   0.00000000000000E+00 -3.54549247372520E-05
! RMS    8.52769E-10   2.79074E-08   6.16744E-09   2.99067E-08   2.35322E-08   2.33827E-06   4.58635E-06
! EIG   7.88001E-11   6.53405E-10   1.17774E-09   1.34738E-08   3.18280E-08   3.74320E-08   4.58650E-06
! WEA   0.00002  -0.00359  -0.00059  -0.00140   0.00139  -0.00680   0.99997
 COV   7.272154881941675E-19  1.505413523645567E-17  3.738075964230358E-18
 COV  -1.202087480659775E-17  8.759489198492617E-18  7.007962563690148E-16
 COV   4.452975437733427E-16  7.788224628485089E-16  1.658140872893318E-16
 COV   7.319108475578761E-18  1.576498246571849E-16  6.172793153763811E-14
 COV  -7.556384403531787E-14  3.803728085369732E-17  7.657318320761212E-18
 COV   6.108558550447437E-17  1.239008140192860E-14 -1.233545388074916E-14
 COV   8.944134067160914E-16  3.266556331590648E-16  1.291671465937215E-14
 COV  -2.941783714354262E-14  5.537652586684872E-16  4.343931449208262E-15
 COV   2.927459251586655E-14  5.467515215096425E-12 -8.197186969878074E-12
 COV   2.103462600909010E-11
 NOR   1.581199573773921E+20 -1.706185665699811E+19  9.697989174712521E+18
 NOR  -1.462021683886514E+17  3.498919454968639E+17  1.467975294463734E+17
 NOR  -2.436834670691118E+15  3.129771928016847E+18 -1.706294204818111E+18
 NOR   3.394293854459630E+17 -4.070890383250178E+17 -2.958784952987410E+16
 NOR   1.147059467192406E+14  1.708621390442504E+18 -1.208153627515701E+17
 NOR   1.134895324012760E+17  1.409217714965387E+16 -1.681178044553908E+14
 NOR   8.702402228848872E+16 -1.014699812975920E+17 -3.713513878984258E+15
 NOR  -3.263364115072646E+13  1.227041035650701E+17  4.482543668901874E+15
 NOR   3.090308361920548E+13  2.884603491681353E+14 -1.526813710136340E+11
 NOR   2.644537283066270E+11
!MOID  0.02552    0
!NODES -0.11729  0.18607
